From: horizons@ssd.jpl.nasa.gov (Horizons Ephemeris System)
Subject: [Horizons] SMALL BODY #C(500@10)_T(Christensen (C/2014 W7)) (1/1)
Date: February 16, 2021 at 11:03:18 PM PST

Automated mail xmit by MAIL_REQUEST, PID= 28240 Tue Feb 16 23:03:18 2021
++++++++++++++++++++++++++++++++ (part 1 of 1)  +++++++++++++++++++++++++++++++


*******************************************************************************
Ephemeris / MAIL_REQUEST Tue Feb 16 23:03:17 2021 Pasadena, USA  / Horizons
*******************************************************************************
Target body name: Christensen (C/2014 W7)         {source: JPL#10}
Center body name: Sun (10)                        {source: DE431}
Center-site name: BODY CENTER
*******************************************************************************
Start time      : A.D. 2014-Jun-30 00:00:00.0000 TDB
Stop  time      : A.D. 2015-Jun-30 00:00:00.0000 TDB
Step-size       : 10080 minutes
*******************************************************************************
Center geodetic : 0.00000000,0.00000000,0.0000000 {E-lon(deg),Lat(deg),Alt(km)}
Center cylindric: 0.00000000,0.00000000,0.0000000 {E-lon(deg),Dxy(km),Dz(km)}
Center radii    : 696000.0 x 696000.0 x 696000.0 k{Equator, meridian, pole}    
Small perturbers: Yes                             {source: SB431-N16}
Output units    : AU-D
Output type     : GEOMETRIC cartesian states
Output format   : 6 (LT, range, and range-rate)
Reference frame : Ecliptic of J2000.0
*******************************************************************************
Initial IAU76/J2000 heliocentric ecliptic osculating elements (au, days, deg.):
 EPOCH=  2457002.5 ! 2014-Dec-11.0000000 (TDB)    RMSW= n.a.                  
  EC= .8692679144849317   QR= 1.488254604156941   TP= 2457023.1215403387      
  OM= 151.2607538133497   W= 33.23974388781362    IN= 98.31367352136922       
 Equivalent ICRF heliocentric equatorial cartesian coordinates (au, au/d):
  X=-1.228028943015023E+00  Y= 5.039820134525910E-01  Z= 7.253389486069830E-01
 VX= 8.321212167883726E-03 VY=-8.378740142762107E-03 VZ= 1.502682393113992E-02
Comet physical (GM= km^3/s^2; RAD= km):                                        
  GM= n.a.                RAD= n.a.                                           
  M1=  16.3     M2=  18.4     k1=  10.    k2=  5.      PHCOF=  .030           
*******************************************************************************
           JDTDB,            Calendar Date (TDB),                     LT,                     RG,                     RR,
**************************************************************************************************************************
$$SOE
2456838.500000000, A.D. 2014-Jun-30 00:00:00.0000,  1.552659139881434E-02,  2.688345964430729E+00, -8.957636303022503E-03,
2456845.500000000, A.D. 2014-Jul-07 00:00:00.0000,  1.516469834092935E-02,  2.625686123855876E+00, -8.943858500573778E-03,
2456852.500000000, A.D. 2014-Jul-14 00:00:00.0000,  1.480352943624666E-02,  2.563151666521232E+00, -8.921623921697763E-03,
2456859.500000000, A.D. 2014-Jul-21 00:00:00.0000,  1.444345047741043E-02,  2.500805927459811E+00, -8.889724493507096E-03,
2456866.500000000, A.D. 2014-Jul-28 00:00:00.0000,  1.408487936613478E-02,  2.438721264110393E+00, -8.846787255944007E-03,
2456873.500000000, A.D. 2014-Aug-04 00:00:00.0000,  1.372829318597383E-02,  2.376980280929716E+00, -8.791253747172018E-03,
2456880.500000000, A.D. 2014-Aug-11 00:00:00.0000,  1.337423616347301E-02,  2.315677207823075E+00, -8.721357085097293E-03,
2456887.500000000, A.D. 2014-Aug-18 00:00:00.0000,  1.302332852878842E-02,  2.254919434313027E+00, -8.635101036506762E-03,
2456894.500000000, A.D. 2014-Aug-25 00:00:00.0000,  1.267627617506885E-02,  2.194829182009519E+00, -8.530240939063960E-03,
2456901.500000000, A.D. 2014-Sep-01 00:00:00.0000,  1.233388107030941E-02,  2.135545307366489E+00, -8.404266007642670E-03,
2456908.500000000, A.D. 2014-Sep-08 00:00:00.0000,  1.199705229101549E-02,  2.077225212101530E+00, -8.254386987269872E-03,
2456915.500000000, A.D. 2014-Sep-15 00:00:00.0000,  1.166681737658082E-02,  2.020046809145531E+00, -8.077533356968987E-03,
2456922.500000000, A.D. 2014-Sep-22 00:00:00.0000,  1.134433352204484E-02,  1.964210460608526E+00, -7.870365078100749E-03,
2456929.500000000, A.D. 2014-Sep-29 00:00:00.0000,  1.103089789387245E-02,  1.909940763901597E+00, -7.629305467006466E-03,
2456936.500000000, A.D. 2014-Oct-06 00:00:00.0000,  1.072795605376211E-02,  1.857488010274033E+00, -7.350603416681500E-03,
2456943.500000000, A.D. 2014-Oct-13 00:00:00.0000,  1.043710711395163E-02,  1.807129077426855E+00, -7.030434543321718E-03,
2456950.500000000, A.D. 2014-Oct-20 00:00:00.0000,  1.016010384621217E-02,  1.759167448384542E+00, -6.665051305500861E-03,
2456957.500000000, A.D. 2014-Oct-27 00:00:00.0000,  9.898845587688424E-03,  1.713931983179337E+00, -6.250990182657328E-03,
2456964.500000000, A.D. 2014-Nov-03 00:00:00.0000,  9.655361562226870E-03,  1.671774031028751E+00, -5.785338756424380E-03,
2456971.500000000, A.D. 2014-Nov-10 00:00:00.0000,  9.431782180603428E-03,  1.633062461124026E+00, -5.266063150692402E-03,
2456978.500000000, A.D. 2014-Nov-17 00:00:00.0000,  9.230296038163882E-03,  1.598176217002381E+00, -4.692383794953962E-03,
2456985.500000000, A.D. 2014-Nov-24 00:00:00.0000,  9.053091338914944E-03,  1.567494174442775E+00, -4.065162738156049E-03,
2456992.500000000, A.D. 2014-Dec-01 00:00:00.0000,  8.902282231350922E-03,  1.541382386909672E+00, -3.387253532479692E-03,
2456999.500000000, A.D. 2014-Dec-08 00:00:00.0000,  8.779822794319487E-03,  1.520179192667370E+00, -2.663750726193508E-03,
2457006.500000000, A.D. 2014-Dec-15 00:00:00.0000,  8.687414153430374E-03,  1.504179132484699E+00, -1.902068824981927E-03,
2457013.500000000, A.D. 2014-Dec-22 00:00:00.0000,  8.626412885004217E-03,  1.493617090270390E+00, -1.111791869462971E-03,
2457020.500000000, A.D. 2014-Dec-29 00:00:00.0000,  8.597750666320366E-03,  1.488654380944746E+00, -3.042666771345358E-04,
2457027.500000000, A.D. 2015-Jan-05 00:00:00.0000,  8.601875282476549E-03,  1.489368536094030E+00,  5.080388311164919E-04,
2457034.500000000, A.D. 2015-Jan-12 00:00:00.0000,  8.638721156513988E-03,  1.495748201419803E+00,  1.312338156812810E-03,
2457041.500000000, A.D. 2015-Jan-19 00:00:00.0000,  8.707713702700624E-03,  1.507693890486549E+00,  2.096376061630847E-03,
2457048.500000000, A.D. 2015-Jan-26 00:00:00.0000,  8.807806877702599E-03,  1.525024486505464E+00,  2.849201029671182E-03,
2457055.500000000, A.D. 2015-Feb-02 00:00:00.0000,  8.937548548745046E-03,  1.547488560480651E+00,  3.561753808844022E-03,
2457062.500000000, A.D. 2015-Feb-09 00:00:00.0000,  9.095164742323442E-03,  1.574778958421294E+00,  4.227206986409137E-03,
2457069.500000000, A.D. 2015-Feb-16 00:00:00.0000,  9.278652427757645E-03,  1.606548866316046E+00,  4.841051517423362E-03,
2457076.500000000, A.D. 2015-Feb-23 00:00:00.0000,  9.485871289701207E-03,  1.642427700050438E+00,  5.400968737325645E-03,
2457083.500000000, A.D. 2015-Mar-02 00:00:00.0000,  9.714626989409291E-03,  1.682035521648533E+00,  5.906548772741622E-03,
2457090.500000000, A.D. 2015-Mar-09 00:00:00.0000,  9.962741119193166E-03,  1.724995151511250E+00,  6.358925237002111E-03,
2457097.500000000, A.D. 2015-Mar-16 00:00:00.0000,  1.022810576261265E-02,  1.770941615220848E+00,  6.760388004987098E-03,
2457104.500000000, A.D. 2015-Mar-23 00:00:00.0000,  1.050872274500925E-02,  1.819528939560061E+00,  7.114019007427122E-03,
2457111.500000000, A.D. 2015-Mar-30 00:00:00.0000,  1.080272910445196E-02,  1.870434562669659E+00,  7.423377818099391E-03,
2457118.500000000, A.D. 2015-Apr-06 00:00:00.0000,  1.110841107106390E-02,  1.923361754493824E+00,  7.692248420697156E-03,
2457125.500000000, A.D. 2015-Apr-13 00:00:00.0000,  1.142420906664673E-02,  1.978040482438274E+00,  7.924447637649155E-03,
2457132.500000000, A.D. 2015-Apr-20 00:00:00.0000,  1.174871611220904E-02,  2.034227135642362E+00,  8.123689239996469E-03,
2457139.500000000, A.D. 2015-Apr-27 00:00:00.0000,  1.208067170874576E-02,  2.091703465468872E+00,  8.293494045696573E-03,
2457146.500000000, A.D. 2015-May-04 00:00:00.0000,  1.241895282542056E-02,  2.150275025156162E+00,  8.437135127301827E-03,
2457153.500000000, A.D. 2015-May-11 00:00:00.0000,  1.276256325321316E-02,  2.209769326459350E+00,  8.557610717199137E-03,
2457160.500000000, A.D. 2015-May-18 00:00:00.0000,  1.311062230106409E-02,  2.270033882448445E+00,  8.657637326018498E-03,
2457167.500000000, A.D. 2015-May-25 00:00:00.0000,  1.346235348836491E-02,  2.330934249673720E+00,  8.739655451518778E-03,
2457174.500000000, A.D. 2015-Jun-01 00:00:00.0000,  1.381707364219798E-02,  2.392352140411298E+00,  8.805843287357028E-03,
2457181.500000000, A.D. 2015-Jun-08 00:00:00.0000,  1.417418265494608E-02,  2.454183649248228E+00,  8.858135210081337E-03,
2457188.500000000, A.D. 2015-Jun-15 00:00:00.0000,  1.453315404351183E-02,  2.516337618462007E+00,  8.898242607810877E-03,
2457195.500000000, A.D. 2015-Jun-22 00:00:00.0000,  1.489352636844522E-02,  2.578734152288561E+00,  8.927675365607034E-03,
2457202.500000000, A.D. 2015-Jun-29 00:00:00.0000,  1.525489551593567E-02,  2.641303280590598E+00,  8.947762929116313E-03,
$$EOE
**************************************************************************************************************************
Coordinate system description:

 Ecliptic at the standard reference epoch

   Reference epoch: J2000.0
   X-Y plane: adopted Earth orbital plane at the reference epoch
              Note: obliquity of 84381.448 arcseconds (IAU76) wrt ICRF equator
   X-axis   : ICRF
   Z-axis   : perpendicular to the X-Y plane in the directional (+ or -) sense
              of Earth's north pole at the reference epoch.

 Symbol meaning [1 au= 149597870.700 km, 1 day= 86400.0 s]:

   JDTDB    Julian Day Number, Barycentric Dynamical Time
     LT     One-way down-leg Newtonian light-time (day)
     RG     Range; distance from coordinate center (au)
     RR     Range-rate; radial velocity wrt coord. center (au/day)

Geometric states/elements have no aberrations applied.


Computations by ...
    Solar System Dynamics Group, Horizons On-Line Ephemeris System
    4800 Oak Grove Drive, Jet Propulsion Laboratory
    Pasadena, CA  91109   USA
    Information  : https://ssd.jpl.nasa.gov/
    Documentation: https://ssd.jpl.nasa.gov/?horizons_doc
    Connect      : https://ssd.jpl.nasa.gov/?horizons (browser)
                   telnet ssd.jpl.nasa.gov 6775       (command-line)
                   e-mail command interface available
                   Script and CGI interfaces available
    Author       : Jon.D.Giorgini@jpl.nasa.gov
*******************************************************************************
